SL-3 R/B                
1 19046U 88032B   26072.94594755  .00005870  00000+0  27390-3 0  9999
2 19046  97.5194  56.1818 0024751 215.8184 144.1392 15.19963859 52753
SL-16 R/B               
1 19120U 88039B   26072.36251505  .00000162  00000+0  99422-4 0  9993
2 19120  71.0138  60.7806 0022967 328.9599  31.0168 14.19616171958900
COSMOS 1953             
1 19210U 88050A   26072.94618272  .00008558  00000+0  30577-3 0  9990
2 19210  82.5104 153.9670 0012581 109.2753 250.9848 15.28604061 38437
SL-8 R/B                
1 19257U 88053B   26072.27425661  .00000289  00000+0  10214-3 0  9997
2 19257  74.0455 105.8585 0021477 284.6463 149.2613 14.38918132977118
COSMOS 1975             
1 19573U 88093A   26072.52282384  .00007979  00000+0  28920-3 0  9999
2 19573  82.5183 113.8374 0012521 150.4889 209.7059 15.28127804 19995
SL-14 R/B               
1 19574U 88093B   26072.97468997  .00000689  00000+0  76423-4 0  9998
2 19574  82.5312  38.0211 0021458  27.9881  43.4022 14.85662506  1659
SL-16 R/B               
1 19650U 88102B   26072.93111559  .00000228  00000+0  13921-3 0  9991
2 19650  70.9996 142.5732 0014228 354.9106   5.1870 14.16154866927496
INTERCOSMOS 24          
1 20261U 89080A   26072.77402872  .00000804  00000+0  23946-3 0  9998
2 20261  82.6020 101.7439 1186677 283.3309  63.8376 12.59564721667318
SL-14 R/B               
1 20262U 89080C   26072.31676343  .00000622  00000+0  18192-3 0  9990
2 20262  82.5974 170.8587 1230673 176.4619 184.6280 12.50498591660602
DELTA 1 R/B             
1 20323U 89089B   26072.82836677  .00000409  00000+0  10954-3 0  9992
2 20323  97.0703 279.6088 0070635 109.1386 251.7476 14.50666794896336
ARIANE 40 R/B           
1 20443U 90005H   26072.91350210  .00000291  00000+0  10613-3 0  9990
2 20443  98.3074 133.4490 0010110 185.5170 174.5909 14.39873538893411
DELTA 2 R/B(1)          
1 20453U 90008B   26072.54443414  .00075823  00000+0  87109-3 0  9999
2 20453  35.6032 149.5449 0084140 294.2576  64.9388 15.56513638926731
